<?xml version="1.0" encoding="UTF-8"?>
<kml xmlns="http://www.opengis.net/kml/2.2">
  <Document>
    <name>London Events — 22 Jun 26 to 28 Jun 26</name>
    <description>Weekend events in London, 22 Jun 26 to 28 Jun 26. Pins coloured by category.</description>
  <Style id="blue-dot.png">
    <IconStyle>
      <Icon><href>https://maps.google.com/mapfiles/ms/icons/blue-dot.png</href></Icon>
    </IconStyle>
  </Style>
  <Style id="green-dot.png">
    <IconStyle>
      <Icon><href>https://maps.google.com/mapfiles/ms/icons/green-dot.png</href></Icon>
    </IconStyle>
  </Style>
  <Style id="ltblue-dot.png">
    <IconStyle>
      <Icon><href>https://maps.google.com/mapfiles/ms/icons/ltblue-dot.png</href></Icon>
    </IconStyle>
  </Style>
  <Style id="orange-dot.png">
    <IconStyle>
      <Icon><href>https://maps.google.com/mapfiles/ms/icons/orange-dot.png</href></Icon>
    </IconStyle>
  </Style>
  <Style id="purple-dot.png">
    <IconStyle>
      <Icon><href>https://maps.google.com/mapfiles/ms/icons/purple-dot.png</href></Icon>
    </IconStyle>
  </Style>
  <Style id="red-dot.png">
    <IconStyle>
      <Icon><href>https://maps.google.com/mapfiles/ms/icons/red-dot.png</href></Icon>
    </IconStyle>
  </Style>
  <Style id="yellow-dot.png">
    <IconStyle>
      <Icon><href>https://maps.google.com/mapfiles/ms/icons/yellow-dot.png</href></Icon>
    </IconStyle>
  </Style>
    <Placemark>
      <name>Afternoon Tea at CORD</name>
      <description><![CDATA[<b>Afternoon Tea at CORD</b><br><i>Food &amp; Drink</i><br>Fri 26th Jun<br>CORD by Le Cordon Bleu, Fleet Street<br>£27<br><br>British-French afternoon tea with handmade pastries by Le Cordon Bleu chefs.<br><br><a href="https://onecitylondon.com/event/afternoon-tea-at-cord/">More info / tickets</a>]]></description>
      <styleUrl>#red-dot.png</styleUrl>
      <Point>
        <coordinates>-0.1104742,51.5139523,0</coordinates>
      </Point>
    </Placemark>
    <Placemark>
      <name>Billingsgate Market Seafood Experience</name>
      <description><![CDATA[<b>Billingsgate Market Seafood Experience</b><br><i>Food &amp; Drink</i><br>Thu 25th Jun<br>The English Grill at The Rubens at The Palace Hotel<br>Tickets from £27.50 – £51.84<br><br>Create a bespoke seafood menu with fresh catches from Billingsgate Market.<br><br><a href="https://the-rubens-at-the-palace.designmynight.com/688b47f56978220112412d49/the-rubens-masterclass-series-billingsgate-market-experience-1">More info / tickets</a>]]></description>
      <styleUrl>#red-dot.png</styleUrl>
      <Point>
        <coordinates>-0.082473,51.414978,0</coordinates>
      </Point>
    </Placemark>
    <Placemark>
      <name>Henry Moore after hours</name>
      <description><![CDATA[<b>Henry Moore after hours</b><br><i>Arts &amp; Culture</i><br>Thu 25th Jun<br>Kew Botanic Gardens, Richmond<br>£23<br><br>Evening of art, music, and performance inspired by Henry Moore's exhibition.<br><br><a href="https://www.ianvisits.co.uk/calendar/weekend/">More info / tickets</a>]]></description>
      <styleUrl>#orange-dot.png</styleUrl>
      <Point>
        <coordinates>-0.2968861,51.4781974,0</coordinates>
      </Point>
    </Placemark>
    <Placemark>
      <name>Jazz on the Tea Lawn</name>
      <description><![CDATA[<b>Jazz on the Tea Lawn</b><br><i>Music</i><br>Thu 25th Jun<br>Lauderdale House, London<br>£15.50<br><br>Latin jazz fusion performance by John Crawford.<br><br><a href="https://eventsforlondon.co.uk/event/jazz-on-the-tea-lawn-john-crawford-latin-quintet/">More info / tickets</a>]]></description>
      <styleUrl>#purple-dot.png</styleUrl>
      <Point>
        <coordinates>-0.1434217,51.5693005,0</coordinates>
      </Point>
    </Placemark>
    <Placemark>
      <name>Dishoom x Shreeji Pop-Up</name>
      <description><![CDATA[<b>Dishoom x Shreeji Pop-Up</b><br><i>Food &amp; Drink</i><br>Fri 26th Jun – Sun 28th Jun<br>Shreeji Newsagents, Marylebone<br>Free<br><br>A food pop-up serving authentic dishes in a newsagent setting.<br><br><a href="https://www.tiktok.com/discover/free-pop-ups-in-london">More info / tickets</a>]]></description>
      <styleUrl>#red-dot.png</styleUrl>
      <Point>
        <coordinates>-0.1545323,51.5185855,0</coordinates>
      </Point>
    </Placemark>
    <Placemark>
      <name>Romantic Escape at Tower Suites</name>
      <description><![CDATA[<b>Romantic Escape at Tower Suites</b><br><i>Arts &amp; Social</i><br>Fri 26th Jun<br>Tower Suites, Tower Hill<br>£27<br><br>Overnight stay with discounts on West End shows and attractions.<br><br><a href="https://onecitylondon.com/event/romantic-escape-with-10-off-experiences-at-tower-suites/">More info / tickets</a>]]></description>
      <styleUrl>#yellow-dot.png</styleUrl>
      <Point>
        <coordinates>-0.0767353,51.5094963,0</coordinates>
      </Point>
    </Placemark>
    <Placemark>
      <name>Venus &amp; Adonis</name>
      <description><![CDATA[<b>Venus &amp; Adonis</b><br><i>Theatre</i><br>Sat 27th Jun<br>Barbican Theatre, Theatre &amp; Dance<br>Check site<br><br>Simon Russell Beale narrates Greg Doran's acclaimed production of Shakespeare's 'Venus &amp; Adonis' at the Barbican Theatre. The performance features world-class puppeteers bringing the poem to life.<br><br><a href="https://www.barbican.org.uk/whats-on/theatre-dance">More info / tickets</a>]]></description>
      <styleUrl>#blue-dot.png</styleUrl>
      <Point>
        <coordinates>0.145345,51.482028,0</coordinates>
      </Point>
    </Placemark>
    <Placemark>
      <name>When Harry Met Sally</name>
      <description><![CDATA[<b>When Harry Met Sally</b><br><i>Cultural</i><br>Sat 27th Jun<br>Prince Charles Cinema, London<br>$200<br><br>Romantic comedy classic in 35mm.<br><br><a href="https://princecharlescinema.com/next-7-days/">More info / tickets</a>]]></description>
      <styleUrl>#orange-dot.png</styleUrl>
      <Point>
        <coordinates>-0.130123,51.511482,0</coordinates>
      </Point>
    </Placemark>
    <Placemark>
      <name>Frida Kahlo's world of colour floods Carnaby Street</name>
      <description><![CDATA[<b>Frida Kahlo's world of colour floods Carnaby Street</b><br><i>Arts &amp; Culture</i><br>Thu 25th Jun<br>Carnaby Street, Carnaby<br>Free<br><br>An outdoor extension of the Tate Modern's Frida Kahlo exhibition.<br><br><a href="https://www.cntraveller.com/gallery/things-to-do-in-london-this-weekend">More info / tickets</a>]]></description>
      <styleUrl>#orange-dot.png</styleUrl>
      <Point>
        <coordinates>-0.1380133,51.512284,0</coordinates>
      </Point>
    </Placemark>
    <Placemark>
      <name>London Bike Ride + Historic Pub + Graffiti</name>
      <description><![CDATA[<b>London Bike Ride + Historic Pub + Graffiti</b><br><i>Cultural</i><br>Thu 25th Jun – Tue 18th Aug<br>The Walrus Bar &amp; Hostel, London<br>From £65<br><br>Explore London by bike, visiting historic pubs and street art.<br><br><a href="https://feverup.com/en/london">More info / tickets</a>]]></description>
      <styleUrl>#orange-dot.png</styleUrl>
      <Point>
        <coordinates>-0.0934412,51.5127204,0</coordinates>
      </Point>
    </Placemark>
    <Placemark>
      <name>Tall sailing ship passing through Tower Bridge</name>
      <description><![CDATA[<b>Tall sailing ship passing through Tower Bridge</b><br><i>Cultural</i><br>Fri 26th Jun<br>Tower Bridge, Tower Bridge<br>Free<br><br>The TS Royalist, a Sea Cadets training ship, sails through Tower Bridge.<br><br><a href="https://www.ianvisits.co.uk/calendar/tall-sailing-ship-passing-through-tower-bridge-2-431908/">More info / tickets</a>]]></description>
      <styleUrl>#orange-dot.png</styleUrl>
      <Point>
        <coordinates>-0.0753662,51.5055166,0</coordinates>
      </Point>
    </Placemark>
    <Placemark>
      <name>Historic Highlights of Highgate Village</name>
      <description><![CDATA[<b>Historic Highlights of Highgate Village</b><br><i>Cultural</i><br>Sat 27th Jun<br>Highgate<br>21<br><br>Guided tour of Highgate's historic sites and stories.<br><br><a href="https://www.ianvisits.co.uk/calendar/historic-highlights-of-highgate-village-tour-425429/">More info / tickets</a>]]></description>
      <styleUrl>#orange-dot.png</styleUrl>
      <Point>
        <coordinates>-0.1492397,51.5706446,0</coordinates>
      </Point>
    </Placemark>
    <Placemark>
      <name>Seven Dials walk: the 1920s and 1930s</name>
      <description><![CDATA[<b>Seven Dials walk: the 1920s and 1930s</b><br><i>Cultural</i><br>Sat 27th Jun<br>Seven Dials<br>25<br><br>Explore London's 1920s and 1930s history on a walking tour.<br><br><a href="https://www.ianvisits.co.uk/calendar/seven-dials-walk-the-1920s-and-1930s-and-the-making-of-modern-london-430902/">More info / tickets</a>]]></description>
      <styleUrl>#orange-dot.png</styleUrl>
      <Point>
        <coordinates>-0.1267321,51.5148427,0</coordinates>
      </Point>
    </Placemark>
    <Placemark>
      <name>St Mary Islington - Church and Tower tour</name>
      <description><![CDATA[<b>St Mary Islington - Church and Tower tour</b><br><i>Cultural</i><br>Sat 27th Jun<br>St Mary's church Islington, Islington<br>16.96<br><br>Tour the historic St Mary's church and its tower.<br><br><a href="https://www.ianvisits.co.uk/calendar/st-mary-islington-church-and-tower-tour-4-427803/">More info / tickets</a>]]></description>
      <styleUrl>#orange-dot.png</styleUrl>
      <Point>
        <coordinates>-0.1017197,51.5384067,0</coordinates>
      </Point>
    </Placemark>
    <Placemark>
      <name>Project a Black Planet: Panafrican Art</name>
      <description><![CDATA[<b>Project a Black Planet: Panafrican Art</b><br><i>Arts &amp; Culture</i><br>Thu 11th Jun – Sun 6th Sep<br>Barbican, EC2Y 8DS<br>£19<br><br>An exhibition exploring the role of visual art in Panafricanism.<br><br><a href="https://www.barbican.org.uk/whats-on/talks-events">More info / tickets</a>]]></description>
      <styleUrl>#orange-dot.png</styleUrl>
      <Point>
        <coordinates>-0.0923806,51.5194587,0</coordinates>
      </Point>
    </Placemark>
    <Placemark>
      <name>Hepworth in Colour</name>
      <description><![CDATA[<b>Hepworth in Colour</b><br><i>Arts &amp; Culture</i><br>Fri 12th Jun – Sun 6th Sep<br>Courtauld Gallery, Strand<br>£18<br><br>Barbara Hepworth's colour-focused exhibition at the Courtauld Gallery.<br><br><a href="https://courtauld.ac.uk/whats-on/exh-hepworth-in-colour/">More info / tickets</a>]]></description>
      <styleUrl>#orange-dot.png</styleUrl>
      <Point>
        <coordinates>-0.1177,51.511624,0</coordinates>
      </Point>
    </Placemark>
    <Placemark>
      <name>Summer Music in City Churches</name>
      <description><![CDATA[<b>Summer Music in City Churches</b><br><i>Music</i><br>Tue 16th Jun – Fri 26th Jun<br>St Giles Cripplegate, City of London<br>Free<br><br>Nine-day music festival in historic City of London churches.<br><br><a href="https://eventsforlondon.co.uk/event/summer-music-in-city-churches-around-the-world-london-concerts/">More info / tickets</a>]]></description>
      <styleUrl>#purple-dot.png</styleUrl>
      <Point>
        <coordinates>-0.093879,51.518839,0</coordinates>
      </Point>
    </Placemark>
    <Placemark>
      <name>David Hockney Exhibition</name>
      <description><![CDATA[<b>David Hockney Exhibition</b><br><i>Arts &amp; Culture</i><br>Thu 25th Jun – Sun 23rd Aug<br>Serpentine North Gallery, Kensington Gardens<br>Free<br><br>New works by David Hockney, including still lifes and portraits.<br><br><a href="https://londontheinside.com/map/exhibitions-2/">More info / tickets</a>]]></description>
      <styleUrl>#orange-dot.png</styleUrl>
      <Point>
        <coordinates>-0.1903443,51.51462585,0</coordinates>
      </Point>
    </Placemark>
    <Placemark>
      <name>Frida Kahlo Exhibition</name>
      <description><![CDATA[<b>Frida Kahlo Exhibition</b><br><i>Arts &amp; Culture</i><br>Thu 25th Jun – Tue 18th Aug<br>Tate Modern, Bankside<br>Free<br><br>A major exhibition featuring 130+ works and personal artefacts of Frida Kahlo.<br><br><a href="https://secretldn.com/things-to-do-in-london-weekend/">More info / tickets</a>]]></description>
      <styleUrl>#orange-dot.png</styleUrl>
      <Point>
        <coordinates>-0.09934164882888792,51.5074293,0</coordinates>
      </Point>
    </Placemark>
    <Placemark>
      <name>The Producers</name>
      <description><![CDATA[<b>The Producers</b><br><i>Theatre</i><br>Thu 25th Jun – Sat 19th Sep<br>Garrick Theatre, London<br>Free<br><br>The Producers, based on the classic cult film, transfers to the Garrick Theatre. The original Broadway production won a record twelve Tony Awards, including Best Musical.<br><br><a href="https://www.londontheatres.com/events/comedy">More info / tickets</a>]]></description>
      <styleUrl>#blue-dot.png</styleUrl>
      <Point>
        <coordinates>-0.127802,51.509996,0</coordinates>
      </Point>
    </Placemark>
    <Placemark>
      <name>M. C. Escher - The Exhibition</name>
      <description><![CDATA[<b>M. C. Escher - The Exhibition</b><br><i>Arts &amp; Culture</i><br>Fri 26th Jun – Sun 6th Sep<br>Somerset House, Embankment<br>£16.5<br><br>Admire over 150 original works by M. C. Escher, master of optical illusions and impossible constructions. The exhibition features installations, videos, and interactive learning features.<br><br><a href="https://feverup.com/m/637982">More info / tickets</a>]]></description>
      <styleUrl>#orange-dot.png</styleUrl>
      <Point>
        <coordinates>-0.216009,51.467043,0</coordinates>
      </Point>
    </Placemark>
    <Placemark>
      <name>Summer open days at Lambeth Palace</name>
      <description><![CDATA[<b>Summer open days at Lambeth Palace</b><br><i>Cultural</i><br>Fri 26th Jun<br>Lambeth Palace, Southwark<br>£14<br><br>Explore historic Lambeth Palace halls and rooms during summer open days.<br><br><a href="https://www.ianvisits.co.uk/calendar/date/2026/06/">More info / tickets</a>]]></description>
      <styleUrl>#orange-dot.png</styleUrl>
      <Point>
        <coordinates>-0.1200826,51.4955481,0</coordinates>
      </Point>
    </Placemark>
    <Placemark>
      <name>Ramses and the Pharaoh's Gold Exhibition</name>
      <description><![CDATA[<b>Ramses and the Pharaoh's Gold Exhibition</b><br><i>Arts &amp; Culture</i><br>Sat 27th Jun – Sun 12th Jul<br>The Power Station, 2 Circus Rd E NEON, London SW11 8DQ<br>Free<br><br>An exhibition featuring 180+ authentic Ancient Egyptian artefacts, including Ramses II's coffin.<br><br><a href="https://secretldn.com/things-to-do-in-london-weekend/">More info / tickets</a>]]></description>
      <styleUrl>#orange-dot.png</styleUrl>
      <Point>
        <coordinates>-0.145992,51.481361,0</coordinates>
      </Point>
    </Placemark>
    <Placemark>
      <name>Cirque Du Soul Summer Day Party</name>
      <description><![CDATA[<b>Cirque Du Soul Summer Day Party</b><br><i>Music</i><br>Sat 27th Jun<br>The Cause London, London<br>£35<br><br>Annual outdoor summer party with circus and soul music.<br><br><a href="https://www.skiddle.com/whats-on/London/The-Cause-London/Cirque-Du-Soul-London--Summer-Day-Party/41958244/">More info / tickets</a>]]></description>
      <styleUrl>#purple-dot.png</styleUrl>
      <Point>
        <coordinates>-0.1648137,51.5871881,0</coordinates>
      </Point>
    </Placemark>
    <Placemark>
      <name>Clockwork Orange</name>
      <description><![CDATA[<b>Clockwork Orange</b><br><i>Nightlife</i><br>Sat 27th Jun<br>Studio 338, London<br>£50<br><br>Outdoor daytime club party with UK's celebrated institution.<br><br><a href="https://www.skiddle.com/whats-on/London/Studio-338/Clockwork-Orange---Studio-338---London/42308984/">More info / tickets</a>]]></description>
      <styleUrl>#purple-dot.png</styleUrl>
      <Point>
        <coordinates>0.0047635,51.4954879,0</coordinates>
      </Point>
    </Placemark>
    <Placemark>
      <name>KIKI Drag Cabaret</name>
      <description><![CDATA[<b>KIKI Drag Cabaret</b><br><i>Nightlife</i><br>Sat 27th Jun<br>Queen of Hoxton, Shoreditch<br>£13-£18 plus booking fee<br><br>Saturday-night drag cabaret at Queen of Hoxton with comedy, music and hosted performances.<br><br><a href="https://www.outsavvy.com/event/5259/kiki-drag-cabaret">More info / tickets</a>]]></description>
      <styleUrl>#purple-dot.png</styleUrl>
      <Point>
        <coordinates>-0.081156,51.522163,0</coordinates>
      </Point>
    </Placemark>
    <Placemark>
      <name>Massi's Yard Brunch</name>
      <description><![CDATA[<b>Massi's Yard Brunch</b><br><i>Food &amp; Drink</i><br>Sat 27th Jun<br>Jaks Mayfair, Mayfair<br>£20<br><br>90s and 00s Bhangra and Bollywood brunch with live music.<br><br><a href="https://www.skiddle.com/whats-on/London/">More info / tickets</a>]]></description>
      <styleUrl>#red-dot.png</styleUrl>
      <Point>
        <coordinates>-0.149,51.50954,0</coordinates>
      </Point>
    </Placemark>
    <Placemark>
      <name>Reggae Brunch</name>
      <description><![CDATA[<b>Reggae Brunch</b><br><i>Food &amp; Drink</i><br>Sat 27th Jun<br>Brixton Jamm, Brixton<br>£48.60<br><br>Join a lively brunch party at Brixton Jamm on Sat 27th Jun with Caribbean food, reggae, dancehall, and soca music. Tickets include bottomless rum punch, a 2-course meal, and reserved seating. Birthday packages and party-only options are available.<br><br><a href="https://thereggaebrunch.designmynight.com/68fa22e5a5ff74086813dda5/the-reggae-brunch-sat-27th-june">More info / tickets</a>]]></description>
      <styleUrl>#red-dot.png</styleUrl>
      <Point>
        <coordinates>-0.112081,51.4706805,0</coordinates>
      </Point>
    </Placemark>
    <Placemark>
      <name>Summer Bollywood Desi boat party</name>
      <description><![CDATA[<b>Summer Bollywood Desi boat party</b><br><i>Music</i><br>Sat 27th Jun – Sun 28th Jun<br>Crown Pier, London<br>£20<br><br>Bollywood and Bhangra music on a Thames boat with drinks, food, and football screening.<br><br><a href="https://www.skiddle.com/whats-on/London/">More info / tickets</a>]]></description>
      <styleUrl>#purple-dot.png</styleUrl>
      <Point>
        <coordinates>-0.1098881,51.5107115,0</coordinates>
      </Point>
    </Placemark>
    <Placemark>
      <name>Bashment Nation Summer Day Festival</name>
      <description><![CDATA[<b>Bashment Nation Summer Day Festival</b><br><i>Music</i><br>Sun 28th Jun<br>LDN EAST, Canning Town<br>from £11.71<br><br>Open-air bashment, dancehall and soca day festival at LDN EAST.<br><br><a href="https://www.eventbrite.com/e/bashment-nation-londons-no1-bashment-summer-day-festival-tickets-1990588214936">More info / tickets</a>]]></description>
      <styleUrl>#purple-dot.png</styleUrl>
      <Point>
        <coordinates>0.0041767,51.5172234,0</coordinates>
      </Point>
    </Placemark>
    <Placemark>
      <name>BST in Hyde Park</name>
      <description><![CDATA[<b>BST in Hyde Park</b><br><i>Music</i><br>Sun 28th Jun<br>Hyde Park, Hyde Park<br>from £49.95<br><br>Summer music festival with Ateez, Bazzi, Flo, and Taemin.<br><br><a href="https://www.designmynight.com/london/blog/things-to-do-in-london-this-weekend">More info / tickets</a>]]></description>
      <styleUrl>#purple-dot.png</styleUrl>
      <Point>
        <coordinates>-0.1808292,51.5011061,0</coordinates>
      </Point>
    </Placemark>
    <Placemark>
      <name>HipHop &amp; R&amp;B Summer Block Party</name>
      <description><![CDATA[<b>HipHop &amp; R&amp;B Summer Block Party</b><br><i>Music</i><br>Sun 28th Jun<br>Between The Bridges<br>£5<br><br>Outdoor party with 90s and 00s hip-hop and R&amp;B hits.<br><br><a href="https://supa-dupa-fly.designmynight.com/69ef6d3a0207a753ef684194/supa-dupa-fly-summer-block-party">More info / tickets</a>]]></description>
      <styleUrl>#purple-dot.png</styleUrl>
      <Point>
        <coordinates>-0.3066662,51.4102865,0</coordinates>
      </Point>
    </Placemark>
  </Document>
</kml>